GLOBALSTAR M045 [-]     
1 25676U 99019A   23347.55640553 -.00000117  00000+0 -20592-3 0  9997
2 25676  51.9981  77.4818 0001113 166.2444 295.5391 12.27020403125675
GLOBALSTAR M019 [-]     
1 25677U 99019B   23347.82042623 -.00000003  00000+0  90958-3 0  9998
2 25677  51.9852 168.3111 0000442  62.3843  39.9439 12.13850602118180
GLOBALSTAR M042 [-]     
1 25679U 99019D   23347.80519847 -.00000083  00000+0  86990-4 0  9995
2 25679  51.9984 167.4764 0002114 224.4322 236.7567 12.22053292117844
GLOBALSTAR M025 [-]     
1 25770U 99031A   23347.32130750 -.00000056  00000+0  34478-3 0  9993
2 25770  51.9845 357.6994 0001177 307.8341 148.7369 11.22548225419734
GLOBALSTAR M047 [-]     
1 25772U 99031C   23347.48910569 -.00000068  00000+0  51722-4 0  9991
2 25772  51.9856  54.0226 0016191  37.6977 322.4961 11.31917193408639
GLOBALSTAR M052 [-]     
1 25773U 99031D   23347.55899333 -.00000069  00000+0 -10667-3 0  9999
2 25773  51.9849 120.6162 0001852   7.4350  74.2323 11.15047171416971
